start=new Date('2021-08-26T00:00:00.000Z').valueOf();
sats=[{"OBJECT_ID":"2021-017K","REV_AT_EPOCH":"2801","REF_FRAME":"TEME","RA_OF_ASC_NODE":"89.4417","OBJECT_NAME":"STARLINK-2141","CENTER_NAME":"EARTH","FILE":"3103208","PERIOD":"95.592","NORAD_CAT_ID":"47731","MEAN_MOTION_DOT":"0.00000700","COUNTRY_CODE":"US","PERIAPSIS":"545.411","SEMIMAJOR_AXIS":"6925.335","DECAY_DATE":null,"EPHEMERIS_TYPE":"0","MEAN_MOTION_DDOT":"0.0000000000000","ECCENTRICITY":"0.00025840","BSTAR":"0.00006591900000","MEAN_MOTION":"15.06404362","APOAPSIS":"548.990","OBJECT_TYPE":"PAYLOAD","MEAN_ELEMENT_THEORY":"SGP4","TIME_SYSTEM":"UTC","TLE_LINE2":"2 47731  53.0558  89.4417 0002584  75.9184 284.2093 15.06404362 28016","SITE":"AFETR","ARG_OF_PERICENTER":"75.9184","RCS_SIZE":"LARGE","GP_ID":"183445496","INCLINATION":"53.0558","ELEMENT_SET_NO":"999","TLE_LINE1":"1 47731U 21017K   21237.85265197  .00000700  00000-0  65919-4 0  9992","LAUNCH_DATE":"2021-03-04","MEAN_ANOMALY":"284.2093","CLASSIFICATION_TYPE":"U","EPOCH":"2021-08-25T20:27:49.130208"},{"MEAN_ANOMALY":"353.1638","LAUNCH_DATE":"2021-03-04","TLE_LINE1":"1 47732U 21017L   21237.69418616  .00036228  00000-0  26052-3 0  9999","EPOCH":"2021-08-25T16:39:37.684224","CLASSIFICATION_TYPE":"U","TLE_LINE2":"2 47732  53.0440  37.6186 0004546   6.9442 353.1638 15.73268150 28722","SITE":"AFETR","APOAPSIS":"352.624","MEAN_MOTION":"15.73268150","OBJECT_TYPE":"PAYLOAD","MEAN_ELEMENT_THEORY":"SGP4","TIME_SYSTEM":"UTC","GP_ID":"183446241","ELEMENT_SET_NO":"999","INCLINATION":"53.0440","ARG_OF_PERICENTER":"6.9442","RCS_SIZE":"LARGE","SEMIMAJOR_AXIS":"6727.701","DECAY_DATE":null,"EPHEMERIS_TYPE":"0","PERIAPSIS":"346.507","BSTAR":"0.00026052000000","MEAN_MOTION_DDOT":"0.0000000000000","ECCENTRICITY":"0.00045460","RA_OF_ASC_NODE":"37.6186","OBJECT_ID":"2021-017L","REV_AT_EPOCH":"2872","REF_FRAME":"TEME","NORAD_CAT_ID":"47732","COUNTRY_CODE":"US","MEAN_MOTION_DOT":"0.00036228","CENTER_NAME":"EARTH","OBJECT_NAME":"STARLINK-2142","FILE":"3103208","PERIOD":"91.529"},{"NORAD_CAT_ID":"47733","MEAN_MOTION_DOT":"0.00001039","COUNTRY_CODE":"US","CENTER_NAME":"EARTH","OBJECT_NAME":"STARLINK-2143","FILE":"3103208","PERIOD":"95.593","RA_OF_ASC_NODE":"99.2902","OBJECT_ID":"2021-017M","REV_AT_EPOCH":"2792","REF_FRAME":"TEME","BSTAR":"0.00008863400000","MEAN_MOTION_DDOT":"0.0000000000000","ECCENTRICITY":"0.00015540","SEMIMAJOR_AXIS":"6925.379","DECAY_DATE":null,"EPHEMERIS_TYPE":"0","PERIAPSIS":"546.167","GP_ID":"183446987","INCLINATION":"53.0562","ELEMENT_SET_NO":"999","ARG_OF_PERICENTER":"78.4020","RCS_SIZE":"LARGE","SITE":"AFETR","TLE_LINE2":"2 47733  53.0562  99.2902 0001554  78.4020 281.7144 15.06390204 27921","MEAN_MOTION":"15.06390204","APOAPSIS":"548.320","OBJECT_TYPE":"PAYLOAD","MEAN_ELEMENT_THEORY":"SGP4","TIME_SYSTEM":"UTC","EPOCH":"2021-08-25T21:46:07.728096","CLASSIFICATION_TYPE":"U","LAUNCH_DATE":"2021-03-04","MEAN_ANOMALY":"281.7144","TLE_LINE1":"1 47733U 21017M   21237.90703389  .00001039  00000-0  88634-4 0  9995"},{"OBJECT_NAME":"STARLINK-2144","CENTER_NAME":"EARTH","FILE":"3103208","PERIOD":"95.593","NORAD_CAT_ID":"47734","MEAN_MOTION_DOT":"0.00000525","COUNTRY_CODE":"US","REV_AT_EPOCH":"2802","REF_FRAME":"TEME","OBJECT_ID":"2021-017N","RA_OF_ASC_NODE":"89.4079","MEAN_MOTION_DDOT":"0.0000000000000","ECCENTRICITY":"0.00022930","BSTAR":"0.00005414900000","PERIAPSIS":"545.659","EPHEMERIS_TYPE":"0","SEMIMAJOR_AXIS":"6925.382","DECAY_DATE":null,"ARG_OF_PERICENTER":"62.8033","RCS_SIZE":"LARGE","GP_ID":"183446746","INCLINATION":"53.0557","ELEMENT_SET_NO":"999","MEAN_ELEMENT_THEORY":"SGP4","TIME_SYSTEM":"UTC","APOAPSIS":"548.835","MEAN_MOTION":"15.06389171","OBJECT_TYPE":"PAYLOAD","SITE":"AFETR","TLE_LINE2":"2 47734  53.0557  89.4079 0002293  62.8033 297.3190 15.06389171 28021","CLASSIFICATION_TYPE":"U","EPOCH":"2021-08-25T20:38:28.111776","TLE_LINE1":"1 47734U 21017N   21237.86004759  .00000525  00000-0  54149-4 0  9999","MEAN_ANOMALY":"297.3190","LAUNCH_DATE":"2021-03-04"},{"RA_OF_ASC_NODE":"36.6708","OBJECT_ID":"2021-017P","REV_AT_EPOCH":"2874","REF_FRAME":"TEME","NORAD_CAT_ID":"47735","MEAN_MOTION_DOT":"0.00021686","COUNTRY_CODE":"US","CENTER_NAME":"EARTH","OBJECT_NAME":"STARLINK-2146","PERIOD":"91.531","FILE":"3103208","SEMIMAJOR_AXIS":"6727.794","DECAY_DATE":null,"EPHEMERIS_TYPE":"0","PERIAPSIS":"346.674","BSTAR":"0.00015822000000","MEAN_MOTION_DDOT":"0.0000000000000","ECCENTRICITY":"0.00044360","TLE_LINE2":"2 47735  53.0441  36.6708 0004436   4.1052 356.0001 15.73235592 28742","SITE":"AFETR","APOAPSIS":"352.643","MEAN_MOTION":"15.73235592","OBJECT_TYPE":"PAYLOAD","MEAN_ELEMENT_THEORY":"SGP4","TIME_SYSTEM":"UTC","GP_ID":"183445997","INCLINATION":"53.0441","ELEMENT_SET_NO":"999","RCS_SIZE":"LARGE","ARG_OF_PERICENTER":"4.1052","MEAN_ANOMALY":"356.0001","LAUNCH_DATE":"2021-03-04","TLE_LINE1":"1 47735U 21017P   21237.88454820  .00021686  00000-0  15822-3 0  9995","EPOCH":"2021-08-25T21:13:44.964480","CLASSIFICATION_TYPE":"U"},{"ELEMENT_SET_NO":"999","INCLINATION":"53.0573","GP_ID":"183445741","RCS_SIZE":"LARGE","ARG_OF_PERICENTER":"85.4201","TLE_LINE2":"2 47736  53.0573  79.5400 0002320  85.4201 274.7053 15.06392916 28194","SITE":"AFETR","OBJECT_TYPE":"PAYLOAD","MEAN_MOTION":"15.06392916","APOAPSIS":"548.842","TIME_SYSTEM":"UTC","MEAN_ELEMENT_THEORY":"SGP4","CLASSIFICATION_TYPE":"U","EPOCH":"2021-08-25T19:52:00.873696","MEAN_ANOMALY":"274.7053","LAUNCH_DATE":"2021-03-04","TLE_LINE1":"1 47736U 21017Q   21237.82778789 -.00001202  00000-0 -61820-4 0  9997","MEAN_MOTION_DOT":"-0.00001202","COUNTRY_CODE":"US","NORAD_CAT_ID":"47736","FILE":"3103208","PERIOD":"95.593","OBJECT_NAME":"STARLINK-2147","CENTER_NAME":"EARTH","RA_OF_ASC_NODE":"79.5400","OBJECT_ID":"2021-017Q","REV_AT_EPOCH":"2819","REF_FRAME":"TEME","BSTAR":"-0.00006182000000","ECCENTRICITY":"0.00023200","MEAN_MOTION_DDOT":"0.0000000000000","DECAY_DATE":null,"SEMIMAJOR_AXIS":"6925.370","EPHEMERIS_TYPE":"0","PERIAPSIS":"545.629"},{"CLASSIFICATION_TYPE":"U","EPOCH":"2021-08-25T21:13:54.439104","MEAN_ANOMALY":"0.5699","LAUNCH_DATE":"2021-03-04","TLE_LINE1":"1 47737U 21017R   21237.88465786  .00019447  00000-0  14235-3 0  9999","GP_ID":"183446487","INCLINATION":"53.0444","ELEMENT_SET_NO":"999","ARG_OF_PERICENTER":"359.5314","RCS_SIZE":"LARGE","SITE":"AFETR","TLE_LINE2":"2 47737  53.0444  36.6737 0004471 359.5314   0.5699 15.73240590 28799","MEAN_ELEMENT_THEORY":"SGP4","TIME_SYSTEM":"UTC","APOAPSIS":"352.652","MEAN_MOTION":"15.73240590","OBJECT_TYPE":"PAYLOAD","BSTAR":"0.00014235000000","MEAN_MOTION_DDOT":"0.0000000000000","ECCENTRICITY":"0.00044710","EPHEMERIS_TYPE":"0","SEMIMAJOR_AXIS":"6727.779","DECAY_DATE":null,"PERIAPSIS":"346.636","NORAD_CAT_ID":"47737","COUNTRY_CODE":"US","MEAN_MOTION_DOT":"0.00019447","OBJECT_NAME":"STARLINK-2148","CENTER_NAME":"EARTH","PERIOD":"91.531","FILE":"3103208","RA_OF_ASC_NODE":"36.6737","REV_AT_EPOCH":"2879","REF_FRAME":"TEME","OBJECT_ID":"2021-017R"},{"BSTAR":"0.00005115200000","ECCENTRICITY":"0.00098700","MEAN_MOTION_DDOT":"0.0000000000000","DECAY_DATE":null,"SEMIMAJOR_AXIS":"6925.355","EPHEMERIS_TYPE":"0","PERIAPSIS":"540.385","COUNTRY_CODE":"US","MEAN_MOTION_DOT":"0.00000477","NORAD_CAT_ID":"47738","PERIOD":"95.592","FILE":"3103208","OBJECT_NAME":"STARLINK-2149","CENTER_NAME":"EARTH","RA_OF_ASC_NODE":"79.2071","OBJECT_ID":"2021-017S","REF_FRAME":"TEME","REV_AT_EPOCH":"2820","EPOCH":"2021-08-25T21:48:47.898144","CLASSIFICATION_TYPE":"U","LAUNCH_DATE":"2021-03-04","MEAN_ANOMALY":"277.6720","TLE_LINE1":"1 47738U 21017S   21237.90888771  .00000477  00000-0  51152-4 0  9999","INCLINATION":"53.0546","ELEMENT_SET_NO":"999","GP_ID":"183447247","RCS_SIZE":"LARGE","ARG_OF_PERICENTER":"82.5390","SITE":"AFETR","TLE_LINE2":"2 47738  53.0546  79.2071 0009870  82.5390 277.6720 15.06397854 28202","OBJECT_TYPE":"PAYLOAD","APOAPSIS":"554.055","MEAN_MOTION":"15.06397854","TIME_SYSTEM":"UTC","MEAN_ELEMENT_THEORY":"SGP4"},{"NORAD_CAT_ID":"47739","MEAN_MOTION_DOT":"-0.00001072","COUNTRY_CODE":"US","CENTER_NAME":"EARTH","OBJECT_NAME":"STARLINK-2150","FILE":"3103208","PERIOD":"95.592","RA_OF_ASC_NODE":"104.2822","REV_AT_EPOCH":"2785","REF_FRAME":"TEME","OBJECT_ID":"2021-017T","BSTAR":"-0.00005309300000","MEAN_MOTION_DDOT":"0.0000000000000","ECCENTRICITY":"0.00022130","EPHEMERIS_TYPE":"0","SEMIMAJOR_AXIS":"6925.364","DECAY_DATE":null,"PERIAPSIS":"545.696","GP_ID":"183445497","INCLINATION":"53.0563","ELEMENT_SET_NO":"999","RCS_SIZE":"LARGE","ARG_OF_PERICENTER":"63.2967","TLE_LINE2":"2 47739  53.0563 104.2822 0002213  63.2967 296.8249 15.06395104 27850","SITE":"AFETR","MEAN_ELEMENT_THEORY":"SGP4","TIME_SYSTEM":"UTC","MEAN_MOTION":"15.06395104","APOAPSIS":"548.761","OBJECT_TYPE":"PAYLOAD","CLASSIFICATION_TYPE":"U","EPOCH":"2021-08-25T21:21:34.633152","MEAN_ANOMALY":"296.8249","LAUNCH_DATE":"2021-03-04","TLE_LINE1":"1 47739U 21017T   21237.88998418 -.00001072  00000-0 -53093-4 0  9997"},{"DECAY_DATE":null,"SEMIMAJOR_AXIS":"6925.351","EPHEMERIS_TYPE":"0","PERIAPSIS":"545.673","BSTAR":"0.00006657900000","ECCENTRICITY":"0.00022290","MEAN_MOTION_DDOT":"0.0000000000000","RA_OF_ASC_NODE":"89.3685","OBJECT_ID":"2021-017U","REF_FRAME":"TEME","REV_AT_EPOCH":"2805","MEAN_MOTION_DOT":"0.00000710","COUNTRY_CODE":"US","NORAD_CAT_ID":"47740","PERIOD":"95.592","FILE":"3103208","OBJECT_NAME":"STARLINK-2152","CENTER_NAME":"EARTH","MEAN_ANOMALY":"286.9132","LAUNCH_DATE":"2021-03-04","TLE_LINE1":"1 47740U 21017U   21237.87108815  .00000710  00000-0  66579-4 0  9991","CLASSIFICATION_TYPE":"U","EPOCH":"2021-08-25T20:54:22.016160","SITE":"AFETR","TLE_LINE2":"2 47740  53.0560  89.3685 0002229  73.2102 286.9132 15.06399148 28054","OBJECT_TYPE":"PAYLOAD","APOAPSIS":"548.760","MEAN_MOTION":"15.06399148","TIME_SYSTEM":"UTC","MEAN_ELEMENT_THEORY":"SGP4","INCLINATION":"53.0560","ELEMENT_SET_NO":"999","GP_ID":"183446242","ARG_OF_PERICENTER":"73.2102","RCS_SIZE":"LARGE"}];
